STARLINK-3594           
1 51895U 22022AV  22079.50001157  .00011837  00000+0  88614-4 0  9995
2 51895  53.2183  60.5132 0001480  51.5568 353.0548 15.73207019  3873
STARLINK-3593           
1 51896U 22022AW  22079.50001157  .00001036  00000+0  11788-4 0  9994
2 51896  53.2192  60.5133 0001446  50.2878 353.6655 15.73221932  3928
STARLINK-3598           
1 51897U 22022AX  22079.50001157 -.00009804  00000+0 -65420-4 0  9990
2 51897  53.2179  60.5118 0001328  53.8122 351.4394 15.73232609  3870
STARLINK-3597           
1 51898U 22022AY  22078.91668981  .00001309  00000+0  13735-4 0  9991
2 51898  53.2188  63.3937 0001147  54.7613 285.5172 15.73213374  3223
FALCON 9 DEB            
1 51899U 22022AZ  22079.17732557  .00224107  30103-4  63718-3 0  9992
2 51899  53.2278  60.6832 0005799 346.1338  13.9531 15.92913022  2642
FALCON 9 DEB            
1 51900U 22022BA  22079.23445646  .00261419  37362-4  70694-3 0  9994
2 51900  53.2242  60.3205 0003607 325.1762  34.9031 15.93841037  2657
FALCON 9 DEB            
1 51901U 22022BB  22079.22203553  .00256900  36914-4  64535-3 0  9991
2 51901  53.2206  60.2270 0007937 315.4457  44.5934 15.95173954  2659
FALCON 9 DEB            
1 51902U 22022BC  22079.21959015  .00235334  32726-4  59234-3 0  9997
2 51902  53.2194  60.2070 0007091 295.8837  64.1461 15.95171495  2659
2022-023A               
1 51946U 22023A   22079.25793891  .00005083  00000+0  20952-3 0  9994
2 51946  63.4533 144.0506 0017050 309.7549 157.1630 15.25241901  2297
2022-023B               
1 51947U 22023B   22079.25712200 -.00066411  00000+0 -26102-2 0  9996
2 51947  63.4506 144.0420 0018463 309.8560 156.8926 15.25442602  2291
2022-023C               
1 51948U 22023C   22078.27199251  .00012159  00000+0  49457-3 0  9990
2 51948  63.4460 147.4499 0017180 300.3126 136.2475 15.24755022  2140
2022-023D               
1 51949U 22023D   22079.44112149  .00010238  00000+0  41823-3 0  9997
2 51949  63.4505 143.4498 0015587 305.6477  64.5664 15.24763976  2322
2022-023E               
1 51950U 22023E   22078.20769344  .00018958  00000+0  77026-3 0  9998
2 51950  63.4464 147.6935 0015432 304.1569 124.4522 15.24553394  2134
2022-023F               
1 51951U 22023F   22079.25996253 -.00023968  00000+0 -96671-3 0  9992
2 51951  63.4445 144.0873 0015861 300.3052 136.8235 15.24225337  2295
2022-023G               
1 51952U 22023G   22079.44277251  .00004479  00000+0  18685-3 0  9997
2 51952  63.4407 143.4422 0016701 301.7683  68.6414 15.25052544  2320
2022-023H               
1 51953U 22023H   22079.48432221  .00001819  00000+0  13783-3 0  9991
2 51953  63.6399 145.9460 0115701 247.1846 111.6971 15.00927199  2299
NOOR-2                  
1 51954U 22024A   22079.44512777  .00003144  00000+0  15470-3 0  9992
2 51954  58.2921  95.6512 0012695 264.4289 240.4614 15.20711108  1850
QASED R/B               
1 51955U 22024B   22078.95463977  .00001895  00000+0  97292-4 0  9999
2 51955  58.2979  97.5894 0009951 274.8281  85.1641 15.21185494  1775
STARLINK-3700           
1 51956U 22025A   22079.50001157 -.00868746  00000+0 -63855-2 0  9995
2 51956  53.2172  85.6454 0001177  69.7587 110.4632 15.74831634  2986
STARLINK-3694           
1 51957U 22025B   22079.50001157 -.00868992  00000+0 -63639-2 0  9999
2 51957  53.2172  85.6389 0001136  87.6714  95.4751 15.74916314  3007
STARLINK-3692           
1 51958U 22025C   22079.50001157 -.00868852  00000+0 -63835-2 0  9993
2 51958  53.2172  85.6440 0001142  81.4188  99.4093 15.74842158  2983
STARLINK-3704           
1 51959U 22025D   22079.50001157 -.00868850  00000+0 -63679-2 0  9998
2 51959  53.2172  85.6401 0001175  77.3659 105.2027 15.74897536  2987
STARLINK-3691           
1 51960U 22025E   22079.50001157 -.00868853  00000+0 -63570-2 0  9993
2 51960  53.2172  85.6383 0001158  78.1281 105.5896 15.74936791  2983
STARLINK-3689           
1 51961U 22025F   22079.50001157 -.00868958  00000+0 -63806-2 0  9992
2 51961  53.2172  85.6426 0001165  76.4963 104.9293 15.74855365  3003
STARLINK-3697           
1 51962U 22025G   22079.50001157 -.00869139  00000+0 -63488-2 0  9991
2 51962  53.2172  85.6359 0001152  99.3240  85.5457 15.74974532  3001
STARLINK-3675           
1 51963U 22025H   22079.50001157 -.00869036  00000+0 -63749-2 0  9998
2 51963  53.2172  85.6415 0001137  93.6761  88.3158 15.74878263  2982
STARLINK-3690           
1 51964U 22025J   22079.50001157 -.00868818  00000+0 -63304-2 0  9993
2 51964  53.2172  85.6324 0001212  66.0649 120.5276 15.75030726  2980
STARLINK-3696           
1 51965U 22025K   22079.50001157 -.00869165  00000+0 -63542-2 0  9994
2 51965  53.2172  85.6369 0001124  96.5163  87.7763 15.74956172  2987
STARLINK-3699           
1 51966U 22025L   22079.50001157 -.00868837  00000+0 -63188-2 0  9996
2 51966  53.2172  85.6303 0001207  66.3583 121.3626 15.75073045  2982
STARLINK-3695           
1 51967U 22025M   22079.50001157 -.00869029  00000+0 -63420-2 0  9990
2 51967  53.2172  85.6346 0001138  87.7497  97.6861 15.74995858  3008
STARLINK-3681           
1 51968U 22025N   22079.50001157 -.00868982  00000+0 -63073-2 0  9992
2 51968  53.2172  85.6281 0001159  74.7844 114.0481 15.75119103  2993
STARLINK-3680           
1 51969U 22025P   22079.50001157 -.00868834  00000+0 -63341-2 0  9997
2 51969  53.2172  85.6336 0001207  68.2906 117.7076 15.75017964  3001
STARLINK-3677           
1 51970U 22025Q   22079.50001157 -.00868825  00000+0 -62938-2 0  9990
2 51970  53.2172  85.6258 0001280  60.1703 129.7805 15.75162152  2982
STARLINK-3669           
1 51971U 22025R   22079.50001157 -.00869196  00000+0 -63261-2 0  9993
2 51971  53.2172  85.6313 0001144  93.8111  93.3262 15.75057750  3004
STARLINK-3671           
1 51972U 22025S   22079.50001157 -.00869059  00000+0 -62851-2 0  9996
2 51972  53.2172  85.6236 0001164  80.0294 111.0514 15.75201373  2998
STARLINK-3679           
1 51973U 22025T   22079.50001157 -.00868869  00000+0 -62998-2 0  9997
2 51973  53.2172  85.6268 0001309  56.7290 132.6597 15.75141512  2988
STARLINK-3672           
1 51974U 22025U   22078.91668981 -.00457128  00000+0 -20566-2 0  9993
2 51974  53.2173  88.3024 0001079  89.0742 145.0474 15.84469796  1848
STARLINK-3674           
1 51975U 22025V   22079.50001157 -.00868996  00000+0 -62733-2 0  9997
2 51975  53.2172  85.6211 0001216  67.1769 125.0258 15.75241780  3004
STARLINK-3663           
1 51976U 22025W   22079.50001157 -.00868826  00000+0 -62770-2 0  9991
2 51976  53.2172  85.6226 0001310  56.0892 135.5483 15.75222627  2992
STARLINK-3660           
1 51977U 22025X   22078.91668981 -.00457117  00000+0 -20567-2 0  9995
2 51977  53.2173  88.3032 0001108  74.1313 159.4242 15.84468125  1849
STARLINK-3666           
1 51978U 22025Y   22079.50001157 -.00868973  00000+0 -62484-2 0  9998
2 51978  53.2172  85.6170 0001225  64.5841 129.8180 15.75331284  2984
STARLINK-3656           
1 51979U 22025Z   22079.50001157 -.00868920  00000+0 -62880-2 0  9991
2 51979  53.2172  85.6247 0001185  70.1501 120.3473 15.75186699  3004
STARLINK-3649           
1 51980U 22025AA  22079.50001157 -.00869079  00000+0 -62385-2 0  9999
2 51980  53.2172  85.6147 0001194  71.4373 124.0817 15.75370575  2983
STARLINK-3635           
1 51981U 22025AB  22079.50001157 -.00869016  00000+0 -62661-2 0  9998
2 51981  53.2172  85.6202 0001177  72.6349 120.1010 15.75268757  2994
STARLINK-3650           
1 51982U 22025AC  22079.50001157 -.00869124  00000+0 -62328-2 0  9999
2 51982  53.2172  85.6137 0001180  70.5852 125.4804 15.75392746  2997
STARLINK-3655           
1 51983U 22025AD  22079.50001157 -.00868919  00000+0 -62540-2 0  9997
2 51983  53.2172  85.6179 0001216  66.1283 127.7229 15.75309484  3010
STARLINK-3664           
1 51984U 22025AE  22079.50001157 -.00869035  00000+0 -62158-2 0  9993
2 51984  53.2172  85.6103 0001226  65.8518 131.8807 15.75451654  2997
STARLINK-3651           
1 51985U 22025AF  22078.91668981 -.00875546  00000+0 -59949-2 0  9990
2 51985  53.2173  88.5116 0001195  56.4025  67.3340 15.76454034  1843
STARLINK-3645           
1 51986U 22025AG  22079.50001157 -.00869323  00000+0 -62079-2 0  9997
2 51986  53.2172  85.6081 0001147  88.0920 110.7551 15.75489483  2982
STARLINK-3644           
1 51987U 22025AH  22079.50001157 -.00869229  00000+0 -62302-2 0  9992
2 51987  53.2172  85.6122 0001139  79.3946 117.2563 15.75405585  2987
STARLINK-3640           
1 51988U 22025AJ  22079.50001157 -.00869404  00000+0 -62036-2 0  9992
2 51988  53.2172  85.6070 0001127  91.6487 107.7577 15.75507670  3005
STARLINK-3642           
1 51989U 22025AK  22079.50001157 -.00869116  00000+0 -62224-2 0  9992
2 51989  53.2172  85.6112 0001191  71.5554 125.6299 15.75430245  2996
STARLINK-3657           
1 51990U 22025AL  22079.50001157 -.00869254  00000+0 -61908-2 0  9995
2 51990  53.2172  85.6047 0001179  73.2491 127.2484 15.75549658  2993
STARLINK-3652           
1 51991U 22025AM  22079.50001157 -.00869099  00000+0 -62110-2 0  9999
2 51991  53.2172  85.6090 0001213  68.5045 129.7831 15.75471118  2980
STARLINK-3643           
1 51992U 22025AN  22079.50001157 -.00869437  00000+0 -61759-2 0  9994
2 51992  53.2172  85.6014 0001136  86.6175 115.5238 15.75609862  3003
STARLINK-3648           
1 51993U 22025AP  22079.50001157 -.00869048  00000+0 -61949-2 0  9994
2 51993  53.2172  85.6056 0001267  60.6786 139.2763 15.75527942  3009
STARLINK-3647           
1 51994U 22025AQ  22079.50001157 -.00869453  00000+0 -61710-2 0  9991
2 51994  53.2172  85.6003 0001144  84.0877 118.6079 15.75628205  3002
STARLINK-3636           
1 51995U 22025AR  22079.50001157 -.00869187  00000+0 -61858-2 0  9999
2 51995  53.2172  85.6033 0001209  67.0969 133.9668 15.75565749  2984
STARLINK-3538           
1 51996U 22025AS  22079.50001157 -.00869243  00000+0 -61633-2 0  9994
2 51996  53.2172  85.5992 0001181  73.3034 129.9287 15.75650075  2990
